{
  "norad_id": 53794,
  "name": "STARLINK-4730",
  "history": [
    {
      "epoch": "2026-03-28T14:29:19.699008",
      "apogee_km": 540.6514047033979,
      "perigee_km": 538.8057181716067,
      "latitude_deg": -52.96559358791488,
      "longitude_deg": -22.644778880057856,
      "semi_major_axis_km": 6917.865561437502,
      "eccentricity": 0.0001334,
      "inclination_deg": 53.216,
      "raan_deg": 189.0616,
      "arg_perigee_deg": 90.0356,
      "mean_anomaly_deg": 270.0789,
      "mean_motion_rev_day": 15.08844851
    }
  ]
}