{"fetched_at":"2026-03-29T02:12:04Z","count":15717,"tles":[{"name":"STARLINK-4730","line1":"1 53794U 22111X   26087.60370022  .00000159  00000+0  28106-4 0  9993","line2":"2 53794  53.2160 189.0616 0001334  90.0356 270.0789 15.08844851196544","category":"Starlink"}]}